S-NET B                 
1 43187U 18014H   22243.30754959  .00000429  00000+0  41083-4 0  9996
2 43187  97.6506 147.5489 0012257  50.9568 309.2743 14.98115379250122
S-NET A                 
1 43188U 18014J   22243.30785320  .00000427  00000+0  40895-4 0  9991
2 43188  97.6512 147.6168 0012256  51.0467 309.1846 14.98114914250121
S-NET C                 
1 43189U 18014K   22243.50906322  .00000382  00000+0  37119-4 0  9996
2 43189  97.6505 147.7341 0012189  50.1054 310.1238 14.98111565248702
FENGMANIU-1 (FMN-1)     
1 43192U 18015A   22243.53747861  .00021237  00000+0  50318-3 0  9992
2 43192  97.5430  30.9006 0010579 122.3803 303.0431 15.41726586255009
SHAONIAN XING           
1 43199U 18015H   22243.58444624  .00011427  00000+0  32527-3 0  9997
2 43199  97.5227  25.3846 0013371 131.1661 293.9522 15.36197229254976
LUOJIA-1 01             
1 43485U 18048B   22243.51770186  .00000416  00000+0  65585-4 0  9996
2 43485  97.9322 323.5678 0010304 323.5833  36.4683 14.77474917228954
SURFSAT                 
1 43614U 18070B   22243.54446654  .00035519  00000+0  43137-3 0  9998
2 43614  93.0218 130.7365 0013217  83.3419 276.9351 15.60368118222750
CP7 (DAVE)              
1 43615U 18070C   22243.17721623  .00031385  00000+0  40926-3 0  9990
2 43615  93.0208 130.3499 0013848  86.8513 273.4336 15.58491500222650
ELFIN-B                 
1 43616U 18070D   22243.21807033  .00217685  00000+0  88806-3 0  9994
2 43616  93.0077 132.3418 0010079  86.9729 273.2704 15.85529411223124
ELFIN-A                 
1 43617U 18070E   22243.14499473  .00360163  50402-4  97738-3 0  9992
2 43617  93.0126 133.9364 0008505  99.2470 260.9776 15.94146074223197
CZ-4B R/B               
1 43656U 18081B   22243.42205649  .00000054  00000+0  34683-4 0  9993
2 43656  99.4083  23.3410 0207375 288.9475  68.9332 14.30595105201073
CUBEBEL-1 (BSUSAT-1)    
1 43666U 18083E   22243.58577933  .00005381  00000+0  22265-3 0  9991
2 43666  97.4163 271.4601 0014538  72.4384  26.6277 15.24280391212928
CHANGSHAGAOXIN (TY 4-01)
1 43669U 18083H   22243.52522356  .00004888  00000+0  21274-3 0  9997
2 43669  97.4117 267.1451 0011205  72.5715  88.5740 15.22648283212728
TEN-KOH                 
1 43677U 18084G   22243.36573598  .00000717  00000+0  77836-4 0  9996
2 43677  97.9740  14.1438 0016371  29.1781 331.0348 14.91249708208841
DIWATA-2B               
1 43678U 18084H   22243.48436932  .00000784  00000+0  82513-4 0  9992
2 43678  97.9810  17.6755 0010771  44.2549 315.9521 14.92274527209043
STARS-AO                
1 43679U 18084J   22243.35168115  .00001044  00000+0  10402-3 0  9991
2 43679  97.9847  19.6536 0009837  48.6583 311.5481 14.93812214209128
AUTCUBE 2               
1 43681U 18084K   22243.33411693  .00001122  00000+0  11322-3 0  9993
2 43681  97.9807  18.1731 0010127  43.9608 316.2415 14.93133360209024
IRVINE01                
1 43693U 18088D   22243.05622325  .00028293  00000+0  65503-3 0  9993
2 43693  85.0239 260.0798 0012377 170.6063 189.5424 15.42230614211701
ES'HAIL 2               
1 43700U 18090A   22243.35118709  .00000146  00000+0  00000+0 0  9998
2 43700   0.0166 129.4976 0001977  64.8076 297.4050  1.00272095 13784
FACSAT-1                
1 43721U 18096C   22243.49194728  .00013816  00000+0  36350-3 0  9996
2 43721  97.3479 323.3471 0014242 141.0392 344.2067 15.38574791209506
CENTAURI-2              
1 43722U 18096D   22243.22449039  .00022688  00000+0  51983-3 0  9992
2 43722  97.3519 325.5178 0012818 138.6095 221.6126 15.42688845209593
3CAT-1                  
1 43728U 18096K   22243.22718294  .00022307  00000+0  51158-3 0  9992
2 43728  97.3533 326.2878 0012800 140.3914 219.8271 15.42664296209630
INNOSAT-2               
1 43738U 18096V   22243.63403043  .00053026  00000+0  74812-3 0  9995
2 43738  97.3616 334.4023 0012037 130.8558 338.5568 15.56347619210177
REAKTOR HELLO WORLD     
1 43743U 18096AA  22243.18495090  .00009767  00000+0  28491-3 0  9999
2 43743  97.3490 322.8030 0015487 146.8732 213.3485 15.35436152209427
ELYSIUM STAR 2 & LFF    
1 43760U 18099C   22243.49882012  .00002320  00000+0  19492-3 0  9998
2 43760  97.6242 310.4335 0013468  13.0368 347.1200 14.99202624204365
2018-099D               
1 43761U 18099D   22243.58652239  .00000549  00000+0  53871-4 0  9996
2 43761  97.6167 308.2925 0014754  22.3236 337.8630 14.96016152204255
AISTECHSAT 2            
1 43768U 18099L   22243.42176532  .00000591  00000+0  57739-4 0  9997
2 43768  97.6115 306.6080 0011704  24.3340 335.8432 14.95975988203896
FOX-1CLIFF (AO-95)      
1 43770U 18099N   22243.13966255  .00001674  00000+0  15125-3 0  9992
2 43770  97.6157 307.5427 0014837  31.8327 328.3789 14.96722043204186
RANGE-A                 
1 43772U 18099Q   22243.16765395  .00001179  00000+0  10612-3 0  9995
2 43772  97.6266 309.4264 0013915  16.5281 343.6392 14.97421917204215
RANGE-B                 
1 43773U 18099R   22243.41834056  .00000472  00000+0  46793-4 0  9990
2 43773  97.6077 306.5737 0013626  18.2842 341.8867 14.96238209204205
2018-099T               
1 43775U 18099T   22243.14543469  .00000798  00000+0  75744-4 0  9996
2 43775  97.6155 307.6132 0014900  23.3963 336.7934 14.96181600204178
MOVE-II                 
1 43780U 18099Y   22243.49797764  .00001791  00000+0  15558-3 0  9999
2 43780  97.6187 309.2085 0013178  23.3019 336.8799 14.98190557204298
SNUSAT-2                
1 43782U 18099AA  22243.17892293  .00001241  00000+0  11304-3 0  9994
2 43782  97.6150 308.0630 0012432  16.9194 343.2441 14.96861229204214
SNUGLITE                
1 43784U 18099AC  22243.40577648  .00001819  00000+0  16228-3 0  9997
2 43784  97.6122 307.9147 0015144  24.2565 335.9367 14.97108692204273
ITASAT 1                
1 43786U 18099AE  22243.19350984  .00001507  00000+0  13624-3 0  9998
2 43786  97.6178 308.5529 0015069  24.1279 336.0646 14.96824732204231
KAZSCISAT-1             
1 43787U 18099AF  22243.41426666  .00001879  00000+0  16297-3 0  9996
2 43787  97.6112 308.0266 0014017  19.3001 340.8750 14.98176557204320
EAGLET-I                
1 43790U 18099AJ  22243.41540843  .00000949  00000+0  87431-4 0  9990
2 43790  97.6177 309.3107 0013739  27.3204 332.8737 14.96959103204002
ESEO                    
1 43792U 18099AL  22243.17998784  .00000555  00000+0  54044-4 0  9993
2 43792  97.6120 308.1869 0013530  24.9138 335.2734 14.96305835204003
CSIM-FD                 
1 43793U 18099AM  22243.43740585  .00001950  00000+0  16608-3 0  9990
2 43793  97.6191 310.1232 0012421  13.5704 346.5851 14.98864368204110
ASTROCAST 0.1           
1 43798U 18099AS  22243.42160212  .00001742  00000+0  15217-3 0  9991
2 43798  97.6194 309.8982 0012038   5.3530 354.7819 14.98023620204332
JY1SAT (JO-97)          
1 43803U 18099AX  22243.38542720  .00001571  00000+0  13985-3 0  9991
2 43803  97.6136 308.5186 0014707  21.7928 338.3917 14.97381819204282
SUOMI-100               
1 43804U 18099AY  22243.14119415  .00001776  00000+0  15784-3 0  9993
2 43804  97.6143 308.1870 0015244  24.0751 336.1181 14.97275418204257
AL-FARABI 2             
1 43805U 18099AZ  22243.56563340  .00000797  00000+0  72392-4 0  9991
2 43805  97.6166 309.1749 0015256  19.4322 340.7481 14.97919607204343
CENTAURI-1              
1 43809U 18099BD  22243.18924927  .00001273  00000+0  11553-3 0  9996
2 43809  97.6147 308.5265 0015096  24.2627 335.9303 14.96935347203959
CHOMPTT                 
1 43855U 18104G   22243.35875894  .00005975  00000+0  21331-3 0  9999
2 43855  85.0390   1.1702 0013563 326.4784  33.5602 15.28540088206160
DAVINCI                 
1 43857U 18104J   22243.33560931  .00033144  00000+0  77230-3 0  9990
2 43857  85.0288 358.2081 0008369 337.8893  22.1997 15.42072368206381
UWE-4                   
1 43880U 18111E   22243.19740792  .00001423  00000+0  12377-3 0  9999
2 43880  97.6595 148.1953 0012728  71.3620 288.8984 14.98464073200898
ZACUBE-2                
1 43907U 18111AH  22243.54989362  .00004157  00000+0  15085-3 0  9992
2 43907  97.1794 127.1900 0019746 167.0331 288.1548 15.28680033204761
MICRODRAGON             
1 43935U 19003D   22243.36192821  .00003905  00000+0  15168-3 0  9992
2 43935  97.1330 270.1203 0014584 267.8946  92.0623 15.26541031201124
AOBA VELOX-IV           
1 43940U 19003J   22243.31483642  .00018202  00000+0  44504-3 0  9999
2 43940  97.1200 277.1083 0015048 226.4034 133.5965 15.40738698201644
M6P                     
1 44109U 19018AF  22243.18819884  .00013941  00000+0  32117-3 0  9991
2 44109  97.3932 328.2099 0044580 216.0379 143.7860 15.41650979190966
FORMOSAT 7-4            
1 44350U 19036M   22243.32055327  .00002329  00000+0  11960-3 0  9990
2 44350  23.9986 228.5230 0005456 255.5540 104.4358 15.09762208174796
PAINANI 1               
1 44365U 19037A   22243.37938146  .00034260  00000+0  42742-3 0  9992
2 44365  44.9961 303.4571 0011093 337.0005  23.0393 15.59259190178914
METEOR-M2 2             
1 44387U 19038A   22243.56072929 -.00000016  00000+0  12436-4 0  9997
2 44387  98.7288 203.7604 0002355  68.4893 291.6530 14.23717948164097
VDNH-80                 
1 44392U 19038G   22243.47029450  .00004110  00000+0  20467-3 0  9994
2 44392  97.6403 214.0514 0017462 228.5306 251.2331 15.18035845174229
D-STAR ONE (LIGHTSAT)   
1 44393U 19038H   22243.45792029  .00005123  00000+0  25368-3 0  9992
2 44393  97.6421 213.9381 0017622 228.5238 131.4484 15.18110610174415
AMGU-1 (AMURSAT)        
1 44394U 19038J   22243.57995490  .00004656  00000+0  22891-3 0  9991
2 44394  97.6415 214.0293 0017441 228.7165 131.2569 15.18411614174435
DOT-1                   
1 44399U 19038P   22243.52491869  .00003323  00000+0  17717-3 0  9993
2 44399  97.6465 212.6097 0021031 237.0861 122.8349 15.15713826174313
SOKRAT                  
1 44404U 19038U   22243.45188495  .00005441  00000+0  26853-3 0  9994
2 44404  97.6411 213.5381 0017628 230.5797 129.3876 15.18195224174394
